IRIDIUM 159             
1 43578U 18061K   25011.75634661  .00000439  00000+0  14962-3 0  9990
2 43578  86.3959 274.5857 0002207  78.8099 281.3345 14.34219337338646
IRIDIUM 180             
1 43922U 19002A   25011.82560034  .00000150  00000+0  46543-4 0  9990
2 43922  86.3971 211.4408 0001883  89.2520 270.8891 14.34215993314264
IRIDIUM 176             
1 43923U 19002B   25011.91463610  .00000557  00000+0  84539-4 0  9991
2 43923  86.6098 211.4086 0002210  57.3235 302.8195 14.72233959322552
IRIDIUM 168             
1 43924U 19002C   25011.81924985  .00000142  00000+0  43782-4 0  9993
2 43924  86.3973 211.5060 0002030  85.2746 274.8682 14.34217691314241
IRIDIUM 173             
1 43925U 19002D   25011.80656509  .00000128  00000+0  38588-4 0  9999
2 43925  86.3969 211.4216 0001900  89.9587 270.1826 14.34217629314226
IRIDIUM 169             
1 43926U 19002E   25012.14043630  .00000513  00000+0  16136-3 0  9995
2 43926  86.4210 242.8895 0000686 141.1468 218.9779 14.38606455315318
IRIDIUM 172             
1 43927U 19002F   25011.93975435  .00000149  00000+0  46000-4 0  9998
2 43927  86.3970 211.3722 0002006  85.7008 274.4417 14.34217515314251
IRIDIUM 175             
1 43928U 19002G   25011.97725998  .00001899  00000+0  29727-3 0  9999
2 43928  86.1534 172.7890 0002202 123.2157 236.9270 14.72229948322550
